CTC1_L_00654007-03
1 50733U 24918XN  26070.40841435  .00000000  00000+0  00000-0 0  9995
2 50733  50.0000 180.0000 0000000   0.0000 144.0000  3.34706435    19
CTC1_L_00654007-04
1 50734U 26887QL  26070.40841435  .00000000  00000+0  00000-0 0  9993
2 50734  50.0000 180.0000 0000000   0.0000 180.0000  3.34706435    10
CTC1_L_00654007-05
1 50735U 25586QE  26070.40841435  .00000000  00000+0  00000-0 0  9999
2 50735  50.0000 180.0000 0000000   0.0000 216.0000  3.34706435    11
CTC1_L_00654007-06
1 50736U 26440AM  26070.40841435  .00000000  00000+0  00000-0 0  9990
2 50736  50.0000 180.0000 0000000   0.0000 252.0000  3.34706435    12
CTC1_L_00654007-07
1 50737U 25754PJ  26070.40841435  .00000000  00000+0  00000-0 0  9998
2 50737  50.0000 180.0000 0000000   0.0000 288.0000  3.34706435    12
CTC1_L_00654007-08
1 50738U 26965MC  26070.40841435  .00000000  00000+0  00000-0 0  9994
2 50738  50.0000 180.0000 0000000   0.0000 324.0000  3.34706435    14
CTC1_L_00654007-09
1 50739U 22053JA  26070.40841435  .00000000  00000+0  00000-0 0  9999
2 50739  50.0000 180.0000 0000000   0.0000   0.0000  3.34706435    16
CTC1_L_00654007-10
1 50740U 24777D   26070.40841435  .00000000  00000+0  00000-0 0  9996
2 50740  50.0000 180.0000 0000000   0.0000  36.0000  3.34706435    17
CTC1_L_00654008-01
1 50741U 26503ST  26070.40841435  .00000000  00000+0  00000-0 0  9996
2 50741  50.0000 210.0000 0000000   0.0000  84.0000  3.34706435    15
CTC1_L_00654008-02
1 50742U 24881VZ  26070.40841435  .00000000  00000+0  00000-0 0  9994
2 50742  50.0000 210.0000 0000000   0.0000 120.0000  3.34706435    17
CTC1_L_00654008-03
1 50743U 24423PH  26070.40841435  .00000000  00000+0  00000-0 0  9997
2 50743  50.0000 210.0000 0000000   0.0000 156.0000  3.34706435    17
CTC1_L_00654008-04
1 50744U 22379ZS  26070.40841435  .00000000  00000+0  00000-0 0  9996
2 50744  50.0000 210.0000 0000000   0.0000 192.0000  3.34706435    18
CTC1_L_00654008-05
1 50745U 23859IH  26070.40841435  .00000000  00000+0  00000-0 0  9991
2 50745  50.0000 210.0000 0000000   0.0000 228.0000  3.34706435    19
CTC1_L_00654008-06
1 50746U 24727LY  26070.40841435  .00000000  00000+0  00000-0 0  9997
2 50746  50.0000 210.0000 0000000   0.0000 264.0000  3.34706435    10
CTC1_L_00654008-07
1 50747U 24326MT  26070.40841435  .00000000  00000+0  00000-0 0  9993
2 50747  50.0000 210.0000 0000000   0.0000 300.0000  3.34706435    12
CTC1_L_00654008-08
1 50748U 23870VM  26070.40841435  .00000000  00000+0  00000-0 0  9997
2 50748  50.0000 210.0000 0000000   0.0000 336.0000  3.34706435    12
CTC1_L_00654008-09
1 50749U 25024XF  26070.40841435  .00000000  00000+0  00000-0 0  9991
2 50749  50.0000 210.0000 0000000   0.0000  12.0000  3.34706435    14
CTC1_L_00654008-10
1 50750U 23157AQ  26070.40841435  .00000000  00000+0  00000-0 0  9998
2 50750  50.0000 210.0000 0000000   0.0000  48.0000  3.34706435    15
CTC1_L_00654009-01
1 50751U 24481WT  26070.40841435  .00000000  00000+0  00000-0 0  9990
2 50751  50.0000 240.0000 0000000   0.0000  96.0000  3.34706435    12
CTC1_L_00654009-02
1 50752U 23156NB  26070.40841435  .00000000  00000+0  00000-0 0  9999
2 50752  50.0000 240.0000 0000000   0.0000 132.0000  3.34706435    14
CTC1_L_00654009-03
1 50753U 22789ZC  26070.40841435  .00000000  00000+0  00000-0 0  9991
2 50753  50.0000 240.0000 0000000   0.0000 168.0000  3.34706435    14
CTC1_L_00654009-04
1 50754U 25664IG  26070.40841435  .00000000  00000+0  00000-0 0  9997
2 50754  50.0000 240.0000 0000000   0.0000 204.0000  3.34706435    16
CTC1_L_00654009-05
1 50755U 25869LQ  26070.40841435  .00000000  00000+0  00000-0 0  9995
2 50755  50.0000 240.0000 0000000   0.0000 240.0000  3.34706435    17
CTC1_L_00654009-06
1 50756U 25951FV  26070.40841435  .00000000  00000+0  00000-0 0  9998
2 50756  50.0000 240.0000 0000000   0.0000 276.0000  3.34706435    17
CTC1_L_00654009-07
1 50757U 25618IY  26070.40841435  .00000000  00000+0  00000-0 0  9999
2 50757  50.0000 240.0000 0000000   0.0000 312.0000  3.34706435    19
CTC1_L_00654009-08
1 50758U 23567IM  26070.40841435  .00000000  00000+0  00000-0 0  9991
2 50758  50.0000 240.0000 0000000   0.0000 348.0000  3.34706435    19
CTC1_L_00654009-09
1 50759U 22489YP  26070.40841435  .00000000  00000+0  00000-0 0  9994
2 50759  50.0000 240.0000 0000000   0.0000  24.0000  3.34706435    11
CTC1_L_00654009-10
1 50760U 22611KC  26070.40841435  .00000000  00000+0  00000-0 0  9993
2 50760  50.0000 240.0000 0000000   0.0000  60.0000  3.34706435    13
CTC1_L_00654010-01
1 50761U 26837JE  26070.40841435  .00000000  00000+0  00000-0 0  9998
2 50761  50.0000 270.0000 0000000   0.0000 108.0000  3.34706435    10
CTC1_L_00654010-02
1 50762U 23333FM  26070.40841435  .00000000  00000+0  00000-0 0  9997
2 50762  50.0000 270.0000 0000000   0.0000 144.0000  3.34706435    11
CTC1_L_00654010-03
1 50763U 23079GM  26070.40841435  .00000000  00000+0  00000-0 0  9995
2 50763  50.0000 270.0000 0000000   0.0000 180.0000  3.34706435    12
CTC1_L_00654010-04
1 50764U 25282TT  26070.40841435  .00000000  00000+0  00000-0 0  9994
2 50764  50.0000 270.0000 0000000   0.0000 216.0000  3.34706435    13
CTC1_L_00654010-05
1 50765U 23941WN  26070.40841435  .00000000  00000+0  00000-0 0  9995
2 50765  50.0000 270.0000 0000000   0.0000 252.0000  3.34706435    14
CTC1_L_00654010-06
1 50766U 22084GJ  26070.40841435  .00000000  00000+0  00000-0 0  9993
2 50766  50.0000 270.0000 0000000   0.0000 288.0000  3.34706435    14
CTC1_L_00654010-07
1 50767U 23854JC  26070.40841435  .00000000  00000+0  00000-0 0  9990
2 50767  50.0000 270.0000 0000000   0.0000 324.0000  3.34706435    16
CTC1_L_00654010-08
1 50768U 24376UV  26070.40841435  .00000000  00000+0  00000-0 0  9991
2 50768  50.0000 270.0000 0000000   0.0000   0.0000  3.34706435    18
CTC1_L_00654010-09
1 50769U 24485YA  26070.40841435  .00000000  00000+0  00000-0 0  9993
2 50769  50.0000 270.0000 0000000   0.0000  36.0000  3.34706435    18
CTC1_L_00654010-10
1 50770U 25568KT  26070.40841435  .00000000  00000+0  00000-0 0  9998
2 50770  50.0000 270.0000 0000000   0.0000  72.0000  3.34706435    10
CTC1_L_00654011-01
1 50771U 24749JP  26070.40841435  .00000000  00000+0  00000-0 0  9999
2 50771  50.0000 300.0000 0000000   0.0000 120.0000  3.34706435    19
CTC1_L_00654011-02
1 50772U 23625LC  26070.40841435  .00000000  00000+0  00000-0 0  9992
2 50772  50.0000 300.0000 0000000   0.0000 156.0000  3.34706435    19
CTC1_L_00654011-03
1 50773U 22576SZ  26070.40841435  .00000000  00000+0  00000-0 0  9997
2 50773  50.0000 300.0000 0000000   0.0000 192.0000  3.34706435    10
CTC1_L_00654011-04
1 50774U 26098GB  26070.40841435  .00000000  00000+0  00000-0 0  9991
2 50774  50.0000 300.0000 0000000   0.0000 228.0000  3.34706435    11
CTC1_L_00654011-05
1 50775U 23072PI  26070.40841435  .00000000  00000+0  00000-0 0  9991
2 50775  50.0000 300.0000 0000000   0.0000 264.0000  3.34706435    12
CTC1_L_00654011-06
1 50776U 24867K   26070.40841435  .00000000  00000+0  00000-0 0  9995
2 50776  50.0000 300.0000 0000000   0.0000 300.0000  3.34706435    14
CTC1_L_00654011-07
1 50777U 22892WN  26070.40841435  .00000000  00000+0  00000-0 0  9992
2 50777  50.0000 300.0000 0000000   0.0000 336.0000  3.34706435    14
CTC1_L_00654011-08
1 50778U 24856CA  26070.40841435  .00000000  00000+0  00000-0 0  9995
2 50778  50.0000 300.0000 0000000   0.0000  12.0000  3.34706435    16
CTC1_L_00654011-09
1 50779U 23582SN  26070.40841435  .00000000  00000+0  00000-0 0  9991
2 50779  50.0000 300.0000 0000000   0.0000  48.0000  3.34706435    16
CTC1_L_00654011-10
1 50780U 23536CS  26070.40841435  .00000000  00000+0  00000-0 0  9992
2 50780  50.0000 300.0000 0000000   0.0000  84.0000  3.34706435    18
CTC1_L_00654012-01
1 50781U 22143ES  26070.40841435  .00000000  00000+0  00000-0 0  9996
2 50781  50.0000 330.0000 0000000   0.0000 132.0000  3.34706435    16
CTC1_L_00654012-02
1 50782U 23852QL  26070.40841435  .00000000  00000+0  00000-0 0  9995
2 50782  50.0000 330.0000 0000000   0.0000 168.0000  3.34706435    16
CTC1_L_00654012-03
1 50783U 25509FL  26070.40841435  .00000000  00000+0  00000-0 0  9997
2 50783  50.0000 330.0000 0000000   0.0000 204.0000  3.34706435    18
CTC1_L_00654012-04
1 50784U 22545BX  26070.40841435  .00000000  00000+0  00000-0 0  9995
2 50784  50.0000 330.0000 0000000   0.0000 240.0000  3.34706435    19
CTC1_L_00654012-05
1 50785U 22703BO  26070.40841435  .00000000  00000+0  00000-0 0  9992
2 50785  50.0000 330.0000 0000000   0.0000 276.0000  3.34706435    19
CTC1_L_00654012-06
1 50786U 22335YA  26070.40841435  .00000000  00000+0  00000-0 0  9994
2 50786  50.0000 330.0000 0000000   0.0000 312.0000  3.34706435    11
CTC1_L_00654012-07
1 50787U 22827QA  26070.40841435  .00000000  00000+0  00000-0 0  9991
2 50787  50.0000 330.0000 0000000   0.0000 348.0000  3.34706435    11
CTC1_L_00654012-08
1 50788U 24743BN  26070.40841435  .00000000  00000+0  00000-0 0  9991
2 50788  50.0000 330.0000 0000000   0.0000  24.0000  3.34706435    13
CTC1_L_00654012-09
1 50789U 24977KN  26070.40841435  .00000000  00000+0  00000-0 0  9991
2 50789  50.0000 330.0000 0000000   0.0000  60.0000  3.34706435    14
CTC1_L_00654012-10
1 50790U 22849TN  26070.40841435  .00000000  00000+0  00000-0 0  9999
2 50790  50.0000 330.0000 0000000   0.0000  96.0000  3.34706435    15
